[{"OBJECT_NAME":"STARLINK-32692","OBJECT_ID":"2024-249P","EPOCH":"2026-03-09T23:10:40.068192","MEAN_MOTION":15.2760041,"ECCENTRICITY":0.00015752,"INCLINATION":43.0004,"RA_OF_ASC_NODE":320.4789,"ARG_OF_PERICENTER":273.8447,"MEAN_ANOMALY":86.2225,"EPHEMERIS_TYPE":0,"CLASSIFICATION_TYPE":"U","NORAD_CAT_ID":62422,"ELEMENT_SET_NO":999,"REV_AT_EPOCH":6776,"BSTAR":0.0013680124,"MEAN_MOTION_DOT":0.00037598,"MEAN_MOTION_DDOT":0},{"OBJECT_NAME":"TEVEL2-9","OBJECT_ID":"2025-052AD","EPOCH":"2026-03-09T16:51:18.321696","MEAN_MOTION":15.28633834,"ECCENTRICITY":0.000799,"INCLINATION":97.4057,"RA_OF_ASC_NODE":324.3929,"ARG_OF_PERICENTER":124.2475,"MEAN_ANOMALY":235.9522,"EPHEMERIS_TYPE":0,"CLASSIFICATION_TYPE":"U","NORAD_CAT_ID":63237,"ELEMENT_SET_NO":999,"REV_AT_EPOCH":5481,"BSTAR":0.00067240159,"MEAN_MOTION_DOT":0.00018694,"MEAN_MOTION_DDOT":0}]
